NORAD_CAT_ID,OBJECT_NAME,OBJECT_TYPE,EPOCH,MEAN_MOTION,ECCENTRICITY,INCLINATION,RA_OF_ASC_NODE,ARG_OF_PERICENTER,MEAN_ANOMALY,BSTAR,MEAN_MOTION_DOT,MEAN_MOTION_DDOT,TLE_LINE0,TLE_LINE1,TLE_LINE2,SEMIMAJOR_AXIS,PERIOD,APOGEE,PERIGEE,DECAYED
52991.0,STARLINK-4285,PAYLOAD,2024-05-17 11:10:06,15.08854072,0.0001441,53.2164,192.473,110.0442,250.0705,0.0005849,9.037e-05,0.0,0 STARLINK-4285,1 52991U 22076F   24138.46535189  .00009037  00000-0  58490-3 0  9990,2 52991  53.2164 192.4730 0001441 110.0442 250.0705 15.08854072103358,6917.837,95.437,540.699,538.706,0.0
52991.0,STARLINK-4285,PAYLOAD,2024-05-17 20:42:24,15.08869557,0.0001538,53.2163,190.6846,70.4446,289.6712,0.00085203,0.00013309,0.0,0 STARLINK-4285,1 52991U 22076F   24138.86278625  .00013309  00000-0  85203-3 0  9992,2 52991  53.2163 190.6846 0001538  70.4446 289.6712 15.08869557102949,6917.79,95.436,540.719,538.591,0.0
52991.0,STARLINK-4285,PAYLOAD,2024-05-18 11:00:53,15.08853772,0.0001453,53.2154,188.012,73.8596,286.2556,0.002113,0.00033513,0.0,0 STARLINK-4285,1 52991U 22076F   24139.45894794  .00033513  00000-0  21130-2 0  9996,2 52991  53.2154 188.0120 0001453  73.8596 286.2556 15.08853772103508,6917.838,95.437,540.708,538.698,0.0
52991.0,STARLINK-4285,PAYLOAD,2024-05-18 20:33:11,15.08858258,0.0001547,53.2161,186.2277,76.013,284.1034,0.001029,0.00016135,0.0,0 STARLINK-4285,1 52991U 22076F   24139.85638502  .00016135  00000-0  10290-2 0  9999,2 52991  53.2161 186.2277 0001547  76.0130 284.1034 15.08858258103560,6917.825,95.436,540.76,538.619,0.0
52991.0,STARLINK-4285,PAYLOAD,2024-05-19 02:54:44,15.08821217,0.0002255,53.2167,185.0342,91.2062,268.9188,-0.00036538,-6.096e-05,0.0,0 STARLINK-4285,1 52991U 22076F   24140.12135294 -.00006096  00000-0 -36538-3 0  9992,2 52991  53.2167 185.0342 0002255  91.2062 268.9188 15.08821217103606,6917.938,95.439,541.363,538.243,0.0
52991.0,STARLINK-4285,PAYLOAD,2024-05-19 09:16:18,15.08803081,0.0001576,53.2166,183.8469,96.1618,263.9554,0.0006764,0.00010482,0.0,0 STARLINK-4285,1 52991U 22076F   24140.38632082  .00010482  00000-0  67640-3 0  9997,2 52991  53.2166 183.8469 0001576  96.1618 263.9554 15.08803081103170,6917.993,95.44,540.949,538.768,0.0
52991.0,STARLINK-4285,PAYLOAD,2024-05-20 12:17:52,15.08853448,0.0001555,53.2161,178.7929,92.969,267.148,0.0014218,0.00022421,0.0,0 STARLINK-4285,1 52991U 22076F   24141.51240928  .00022421  00000-0  14218-2 0  9995,2 52991  53.2161 178.7929 0001555  92.9690 267.1480 15.08853448103817,6917.839,95.437,540.78,538.629,0.0
52991.0,STARLINK-4285,PAYLOAD,2024-05-21 02:36:20,15.08860165,0.0001674,53.2164,176.1151,98.6887,261.4295,0.0010111,0.00015849,0.0,0 STARLINK-4285,1 52991U 22076F   24142.10856543  .00015849  00000-0  10111-2 0  9991,2 52991  53.2164 176.1151 0001674  98.6887 261.4295 15.08860165103907,6917.819,95.436,540.842,538.526,0.0
52991.0,STARLINK-4285,PAYLOAD,2024-05-21 07:22:29,15.08859314,0.0001655,53.2167,175.2221,101.7648,258.353,0.00067776,0.00010521,0.0,0 STARLINK-4285,1 52991U 22076F   24142.30728326  .00010521  00000-0  67776-3 0  9992,2 52991  53.2167 175.2221 0001655 101.7648 258.3530 15.08859314103460,6917.821,95.436,540.831,538.541,0.0
52991.0,STARLINK-4285,PAYLOAD,2024-05-22 02:27:06,15.08853301,0.0001575,53.2154,171.6587,77.6481,282.4687,0.00057317,8.849e-05,0.0,0 STARLINK-4285,1 52991U 22076F   24143.10216200  .00008849  00000-0  57317-3 0  9994,2 52991  53.2154 171.6587 0001575  77.6481 282.4687 15.08853301104055,6917.84,95.437,540.794,538.615,0.0
52991.0,STARLINK-4285,PAYLOAD,2024-05-22 07:13:16,15.08847765,0.0001577,53.2159,170.7636,102.5955,257.5214,0.00013226,1.818e-05,0.0,0 STARLINK-4285,1 52991U 22076F   24143.30088076  .00001818  00000-0  13226-3 0  9994,2 52991  53.2159 170.7636 0001577 102.5955 257.5214 15.08847765104080,6917.857,95.437,540.813,538.631,0.0
52991.0,STARLINK-4285,PAYLOAD,2024-05-23 05:28:40,15.08840636,0.0001574,53.2155,166.5983,105.7635,254.3531,8.3969e-06,-1.54e-06,0.0,0 STARLINK-4285,1 52991U 22076F   24144.22824155 -.00000154  00000-0  83969-5 0  9998,2 52991  53.2155 166.5983 0001574 105.7635 254.3531 15.08840636104224,6917.878,95.438,540.832,538.655,0.0
52991.0,STARLINK-4285,PAYLOAD,2024-05-23 07:04:03,15.08840408,0.0001528,53.216,166.3033,100.8343,259.2821,1.963e-05,2.4e-07,0.0,0 STARLINK-4285,1 52991U 22076F   24144.29448277  .00000024  00000-0  19630-4 0  9990,2 52991  53.2160 166.3033 0001528 100.8343 259.2821 15.08840408103766,6917.879,95.438,540.801,538.687,0.0
52991.0,STARLINK-4285,PAYLOAD,2024-05-24 10:05:36,15.08844907,0.0001343,53.2151,161.247,90.3259,269.7887,0.00016283,2.305e-05,0.0,0 STARLINK-4285,1 52991U 22076F   24145.42055952  .00002305  00000-0  16283-3 0  9994,2 52991  53.2151 161.2470 0001343  90.3259 269.7887 15.08844907104407,6917.865,95.437,540.659,538.801,0.0
52991.0,STARLINK-4285,PAYLOAD,2024-05-24 18:02:31,15.0884295,0.0001198,53.2152,159.7528,95.0934,265.0195,0.00013852,1.918e-05,0.0,0 STARLINK-4285,1 52991U 22076F   24145.75175798  .00001918  00000-0  13852-3 0  9999,2 52991  53.2152 159.7528 0001198  95.0934 265.0195 15.08842950103983,6917.871,95.437,540.565,538.908,0.0
52991.0,STARLINK-4285,PAYLOAD,2024-05-25 05:10:14,15.08833358,0.0001393,53.2153,157.6714,78.34,281.7749,-4.5898e-05,-1.018e-05,0.0,0 STARLINK-4285,1 52991U 22076F   24146.21544470 -.00001018  00000-0 -45898-4 0  9997,2 52991  53.2153 157.6714 0001393  78.3400 281.7749 15.08833358104520,6917.901,95.438,540.729,538.802,0.0
52991.0,STARLINK-4285,PAYLOAD,2024-05-25 09:56:23,15.08834287,0.0001399,53.2156,156.7878,84.6116,275.5035,-2.6433e-05,-7.09e-06,0.0,0 STARLINK-4285,1 52991U 22076F   24146.41416561 -.00000709  00000-0 -26433-4 0  9998,2 52991  53.2156 156.7878 0001399  84.6116 275.5035 15.08834287104086,6917.898,95.438,540.731,538.795,0.0
52991.0,STARLINK-4285,PAYLOAD,2024-05-26 08:11:47,15.08842259,0.0001377,53.216,152.6244,75.6619,284.4526,0.00010524,1.387e-05,0.0,0 STARLINK-4285,1 52991U 22076F   24147.34152424  .00001387  00000-0  10524-3 0  9990,2 52991  53.2160 152.6244 0001377  75.6619 284.4526 15.08842259104696,6917.873,95.437,540.691,538.786,0.0
52991.0,STARLINK-4285,PAYLOAD,2024-05-27 06:27:11,15.08844878,0.0001435,53.2161,148.4619,82.1732,277.9423,0.00025723,3.809e-05,0.0,0 STARLINK-4285,1 52991U 22076F   24148.26888417  .00003809  00000-0  25723-3 0  9998,2 52991  53.2161 148.4619 0001435  82.1732 277.9423 15.08844878104366,6917.865,95.437,540.723,538.738,0.0
52991.0,STARLINK-4285,PAYLOAD,2024-05-28 04:42:35,15.08842386,0.0001377,53.2157,144.2979,87.2025,272.9125,8.7217e-05,1.1e-05,0.0,0 STARLINK-4285,1 52991U 22076F   24149.19624370  .00001100  00000-0  87217-4 0  9996,2 52991  53.2157 144.2979 0001377  87.2025 272.9125 15.08842386104973,6917.873,95.437,540.691,538.786,0.0
52991.0,STARLINK-4285,PAYLOAD,2024-05-28 06:17:58,15.08842349,0.0001376,53.2157,144.0005,87.0705,273.0445,8.1346e-05,1.007e-05,0.0,0 STARLINK-4285,1 52991U 22076F   24149.26248355  .00001007  00000-0  81346-4 0  9992,2 52991  53.2157 144.0005 0001376  87.0705 273.0445 15.08842349104519,6917.873,95.437,540.69,538.786,0.0
52991.0,STARLINK-4285,PAYLOAD,2024-05-29 09:19:31,15.08842074,0.0001388,53.2169,138.9458,96.0624,264.0526,3.4235e-05,2.57e-06,0.0,0 STARLINK-4285,1 52991U 22076F   24150.38856196  .00000257  00000-0  34235-4 0  9996,2 52991  53.2169 138.9458 0001388  96.0624 264.0526 15.08842074105155,6917.874,95.437,540.699,538.779,0.0
52991.0,STARLINK-4285,PAYLOAD,2024-05-30 05:59:32,15.08837751,0.0001365,53.2169,135.0795,94.543,265.5718,5.8432e-05,6.42e-06,0.0,0 STARLINK-4285,1 52991U 22076F   24151.24968524  .00000642  00000-0  58432-4 0  9994,2 52991  53.2169 135.0795 0001365  94.5430 265.5718 15.08837751105289,6917.887,95.438,540.697,538.808,0.0
52991.0,STARLINK-4285,PAYLOAD,2024-05-30 21:53:24,15.08837711,0.000141,53.2173,132.1064,96.1825,263.9328,5.5301e-05,5.92e-06,0.0,0 STARLINK-4285,1 52991U 22076F   24151.91208721  .00000592  00000-0  55301-4 0  9990,2 52991  53.2173 132.1064 0001410  96.1825 263.9328 15.08837711104912,6917.887,95.438,540.728,538.777,0.0
52991.0,STARLINK-4285,PAYLOAD,2024-05-31 07:25:43,15.08836159,0.0001414,53.2173,130.3219,91.6476,268.4678,3.6939e-05,3e-06,0.0,0 STARLINK-4285,1 52991U 22076F   24152.30952976  .00000300  00000-0  36939-4 0  9995,2 52991  53.2173 130.3219 0001414  91.6476 268.4678 15.08836159105442,6917.892,95.438,540.735,538.779,0.0
52991.0,STARLINK-4285,PAYLOAD,2024-06-01 07:16:30,15.08840372,0.0001527,53.2185,125.8634,91.2426,268.8741,8.4207e-05,1.052e-05,0.0,0 STARLINK-4285,1 52991U 22076F   24153.30312778  .00001052  00000-0  84207-4 0  9992,2 52991  53.2185 125.8634 0001527  91.2426 268.8741 15.08840372105123,6917.879,95.438,540.801,538.688,0.0
52991.0,STARLINK-4285,PAYLOAD,2024-06-01 15:13:25,15.08846842,0.0001454,53.218,124.3757,83.2281,276.8877,0.00011722,1.578e-05,0.0,0 STARLINK-4285,1 52991U 22076F   24153.63432268  .00001578  00000-0  11722-3 0  9999,2 52991  53.2180 124.3757 0001454  83.2281 276.8877 15.08846842105641,6917.859,95.437,540.73,538.719,0.0
52991.0,STARLINK-4285,PAYLOAD,2024-06-02 05:31:54,15.08833011,0.0001575,53.2187,121.6981,82.7132,277.4039,2.5582e-05,1.19e-06,0.0,0 STARLINK-4285,1 52991U 22076F   24154.23049592  .00000119  00000-0  25582-4 0  9990,2 52991  53.2187 121.6981 0001575  82.7132 277.4039 15.08833011105731,6917.902,95.438,540.856,538.677,0.0
52991.0,STARLINK-4285,PAYLOAD,2024-06-02 07:07:17,15.0883626,0.0001457,53.2181,121.4018,84.3685,275.7474,5.9488e-05,6.59e-06,0.0,0 STARLINK-4285,1 52991U 22076F   24154.29673274  .00000659  00000-0  59488-4 0  9997,2 52991  53.2181 121.4018 0001457  84.3685 275.7474 15.08836260105276,6917.892,95.438,540.765,538.749,0.0
52991.0,STARLINK-4285,PAYLOAD,2024-06-02 15:04:13,15.08841192,0.000145,53.2182,119.9159,85.416,274.6998,8.0541e-05,9.94e-06,0.0,0 STARLINK-4285,1 52991U 22076F   24154.62792987  .00000994  00000-0  80541-4 0  9993,2 52991  53.2182 119.9159 0001450  85.4160 274.6998 15.08841192105794,6917.877,95.437,540.745,538.739,0.0
